[{"CCSDS_OMM_VERS":"2.0","COMMENT":"GENERATED VIA SPACE-TRACK.ORG API","CREATION_DATE":"2020-12-21T21:54:52","ORIGINATOR":"18 SPCS","OBJECT_NAME":"ONEWEB-0135","OBJECT_ID":"2020-100Z","CENTER_NAME":"EARTH","REF_FRAME":"TEME","TIME_SYSTEM":"UTC","MEAN_ELEMENT_THEORY":"SGP4","EPOCH":"2020-12-21T12:00:02.000160","MEAN_MOTION":"15.42130512","ECCENTRICITY":"0.00088490","INCLINATION":"87.3976","RA_OF_ASC_NODE":"38.6271","ARG_OF_PERICENTER":"248.3278","MEAN_ANOMALY":"134.3944","EPHEMERIS_TYPE":"0","CLASSIFICATION_TYPE":"U","NORAD_CAT_ID":"47281","ELEMENT_SET_NO":"999","REV_AT_EPOCH":"176","BSTAR":"0.00158880000000","MEAN_MOTION_DOT":"0.00068563","MEAN_MOTION_DDOT":"0.0000000000000","SEMIMAJOR_AXIS":"6817.959","PERIOD":"93.377","APOAPSIS":"445.857","PERIAPSIS":"433.791","OBJECT_TYPE":"PAYLOAD","RCS_SIZE":null,"COUNTRY_CODE":"UK","LAUNCH_DATE":"2020-12-18","SITE":"VOSTO","DECAY_DATE":null,"FILE":"2907202","GP_ID":"168188335","TLE_LINE0":"0 ONEWEB-0135","TLE_LINE1":"1 47281U 20100Z   20356.50002315  .00068563  00000-0  15888-2 0  9997","TLE_LINE2":"2 47281  87.3976  38.6271 0008849 248.3278 134.3944 15.42130512  1760"},{"CCSDS_OMM_VERS":"2.0","COMMENT":"GENERATED VIA SPACE-TRACK.ORG API","CREATION_DATE":"2020-12-21T22:26:09","ORIGINATOR":"18 SPCS","OBJECT_NAME":"ONEWEB-0135","OBJECT_ID":"2020-100Z","CENTER_NAME":"EARTH","REF_FRAME":"TEME","TIME_SYSTEM":"UTC","MEAN_ELEMENT_THEORY":"SGP4","EPOCH":"2020-12-21T20:00:01.000224","MEAN_MOTION":"15.42176711","ECCENTRICITY":"0.00087880","INCLINATION":"87.3977","RA_OF_ASC_NODE":"38.5094","ARG_OF_PERICENTER":"245.8756","MEAN_ANOMALY":"186.0693","EPHEMERIS_TYPE":"0","CLASSIFICATION_TYPE":"U","NORAD_CAT_ID":"47281","ELEMENT_SET_NO":"999","REV_AT_EPOCH":"50","BSTAR":"-0.00079565000000","MEAN_MOTION_DOT":"-0.00033871","MEAN_MOTION_DDOT":"0.0000000000000","SEMIMAJOR_AXIS":"6817.823","PERIOD":"93.374","APOAPSIS":"445.679","PERIAPSIS":"433.696","OBJECT_TYPE":"PAYLOAD","RCS_SIZE":null,"COUNTRY_CODE":"UK","LAUNCH_DATE":"2020-12-18","SITE":"VOSTO","DECAY_DATE":null,"FILE":"2907238","GP_ID":"168190242","TLE_LINE0":"0 ONEWEB-0135","TLE_LINE1":"1 47281U 20100Z   20356.83334491 -.00033871  00000-0 -79565-3 0  9995","TLE_LINE2":"2 47281  87.3977  38.5094 0008788 245.8756 186.0693 15.42176711   505"},{"CCSDS_OMM_VERS":"2.0","COMMENT":"GENERATED VIA SPACE-TRACK.ORG API","CREATION_DATE":"2020-12-22T04:08:37","ORIGINATOR":"18 SPCS","OBJECT_NAME":"ONEWEB-0135","OBJECT_ID":"2020-100Z","CENTER_NAME":"EARTH","REF_FRAME":"TEME","TIME_SYSTEM":"UTC","MEAN_ELEMENT_THEORY":"SGP4","EPOCH":"2020-12-21T22:00:00.999936","MEAN_MOTION":"15.42142203","ECCENTRICITY":"0.00088290","INCLINATION":"87.3978","RA_OF_ASC_NODE":"38.4796","ARG_OF_PERICENTER":"245.5020","MEAN_ANOMALY":"288.7779","EPHEMERIS_TYPE":"0","CLASSIFICATION_TYPE":"U","NORAD_CAT_ID":"47281","ELEMENT_SET_NO":"999","REV_AT_EPOCH":"178","BSTAR":"0.00082178000000","MEAN_MOTION_DOT":"0.00035350","MEAN_MOTION_DDOT":"0.0000000000000","SEMIMAJOR_AXIS":"6817.925","PERIOD":"93.376","APOAPSIS":"445.809","PERIAPSIS":"433.770","OBJECT_TYPE":"PAYLOAD","RCS_SIZE":null,"COUNTRY_CODE":"UK","LAUNCH_DATE":"2020-12-18","SITE":"VOSTO","DECAY_DATE":null,"FILE":"2907352","GP_ID":"168213106","TLE_LINE0":"0 ONEWEB-0135","TLE_LINE1":"1 47281U 20100Z   20356.91667824  .00035350  00000-0  82178-3 0  9999","TLE_LINE2":"2 47281  87.3978  38.4796 0008829 245.5020 288.7779 15.42142203  1786"},{"CCSDS_OMM_VERS":"2.0","COMMENT":"GENERATED VIA SPACE-TRACK.ORG API","CREATION_DATE":"2020-12-22T06:26:10","ORIGINATOR":"18 SPCS","OBJECT_NAME":"ONEWEB-0135","OBJECT_ID":"2020-100Z","CENTER_NAME":"EARTH","REF_FRAME":"TEME","TIME_SYSTEM":"UTC","MEAN_ELEMENT_THEORY":"SGP4","EPOCH":"2020-12-22T04:00:00.999936","MEAN_MOTION":"15.42188115","ECCENTRICITY":"0.00089280","INCLINATION":"87.3978","RA_OF_ASC_NODE":"38.3899","ARG_OF_PERICENTER":"244.2138","MEAN_ANOMALY":"237.0182","EPHEMERIS_TYPE":"0","CLASSIFICATION_TYPE":"U","NORAD_CAT_ID":"47281","ELEMENT_SET_NO":"999","REV_AT_EPOCH":"55","BSTAR":"-0.00058663000000","MEAN_MOTION_DOT":"-0.00024999","MEAN_MOTION_DDOT":"0.0000000000000","SEMIMAJOR_AXIS":"6817.789","PERIOD":"93.373","APOAPSIS":"445.741","PERIAPSIS":"433.567","OBJECT_TYPE":"PAYLOAD","RCS_SIZE":null,"COUNTRY_CODE":"UK","LAUNCH_DATE":"2020-12-18","SITE":"VOSTO","DECAY_DATE":null,"FILE":"2907408","GP_ID":"168215481","TLE_LINE0":"0 ONEWEB-0135","TLE_LINE1":"1 47281U 20100Z   20357.16667824 -.00024999  00000-0 -58663-3 0  9998","TLE_LINE2":"2 47281  87.3978  38.3899 0008928 244.2138 237.0182 15.42188115   556"},{"CCSDS_OMM_VERS":"2.0","COMMENT":"GENERATED VIA SPACE-TRACK.ORG API","CREATION_DATE":"2020-12-22T19:30:16","ORIGINATOR":"18 SPCS","OBJECT_NAME":"ONEWEB-0135","OBJECT_ID":"2020-100Z","CENTER_NAME":"EARTH","REF_FRAME":"TEME","TIME_SYSTEM":"UTC","MEAN_ELEMENT_THEORY":"SGP4","EPOCH":"2020-12-22T10:00:07.000416","MEAN_MOTION":"15.42155387","ECCENTRICITY":"0.00089850","INCLINATION":"87.3979","RA_OF_ASC_NODE":"38.2993","ARG_OF_PERICENTER":"243.2855","MEAN_ANOMALY":"185.3346","EPHEMERIS_TYPE":"0","CLASSIFICATION_TYPE":"U","NORAD_CAT_ID":"47281","ELEMENT_SET_NO":"999","REV_AT_EPOCH":"180","BSTAR":"0.00061164000000","MEAN_MOTION_DOT":"0.00026305","MEAN_MOTION_DDOT":"0.0000000000000","SEMIMAJOR_AXIS":"6817.886","PERIOD":"93.375","APOAPSIS":"445.877","PERIAPSIS":"433.625","OBJECT_TYPE":"PAYLOAD","RCS_SIZE":null,"COUNTRY_CODE":"UK","LAUNCH_DATE":"2020-12-18","SITE":"VOSTO","DECAY_DATE":null,"FILE":"2907836","GP_ID":"168246655","TLE_LINE0":"0 ONEWEB-0135","TLE_LINE1":"1 47281U 20100Z   20357.41674769  .00026305  00000-0  61164-3 0  9993","TLE_LINE2":"2 47281  87.3979  38.2993 0008985 243.2855 185.3346 15.42155387  1800"},{"CCSDS_OMM_VERS":"2.0","COMMENT":"GENERATED VIA SPACE-TRACK.ORG API","CREATION_DATE":"2020-12-22T22:26:10","ORIGINATOR":"18 SPCS","OBJECT_NAME":"ONEWEB-0135","OBJECT_ID":"2020-100Z","CENTER_NAME":"EARTH","REF_FRAME":"TEME","TIME_SYSTEM":"UTC","MEAN_ELEMENT_THEORY":"SGP4","EPOCH":"2020-12-22T20:00:01.000224","MEAN_MOTION":"15.42189855","ECCENTRICITY":"0.00089260","INCLINATION":"87.3981","RA_OF_ASC_NODE":"38.1517","ARG_OF_PERICENTER":"240.9236","MEAN_ANOMALY":"338.9364","EPHEMERIS_TYPE":"0","CLASSIFICATION_TYPE":"U","NORAD_CAT_ID":"47281","ELEMENT_SET_NO":"999","REV_AT_EPOCH":"65","BSTAR":"-0.00083522000000","MEAN_MOTION_DOT":"-0.00035567","MEAN_MOTION_DDOT":"0.0000000000000","SEMIMAJOR_AXIS":"6817.784","PERIOD":"93.373","APOAPSIS":"445.735","PERIAPSIS":"433.564","OBJECT_TYPE":"PAYLOAD","RCS_SIZE":null,"COUNTRY_CODE":"UK","LAUNCH_DATE":"2020-12-18","SITE":"VOSTO","DECAY_DATE":null,"FILE":"2907891","GP_ID":"168247864","TLE_LINE0":"0 ONEWEB-0135","TLE_LINE1":"1 47281U 20100Z   20357.83334491 -.00035567  00000-0 -83522-3 0  9998","TLE_LINE2":"2 47281  87.3981  38.1517 0008926 240.9236 338.9364 15.42189855   651"},{"CCSDS_OMM_VERS":"2.0","COMMENT":"GENERATED VIA SPACE-TRACK.ORG API","CREATION_DATE":"2020-12-23T06:36:09","ORIGINATOR":"18 SPCS","OBJECT_NAME":"ONEWEB-0135","OBJECT_ID":"2020-100Z","CENTER_NAME":"EARTH","REF_FRAME":"TEME","TIME_SYSTEM":"UTC","MEAN_ELEMENT_THEORY":"SGP4","EPOCH":"2020-12-23T04:00:00.999936","MEAN_MOTION":"15.42207563","ECCENTRICITY":"0.00090500","INCLINATION":"87.3980","RA_OF_ASC_NODE":"38.0323","ARG_OF_PERICENTER":"239.2770","MEAN_ANOMALY":"29.8975","EPHEMERIS_TYPE":"0","CLASSIFICATION_TYPE":"U","NORAD_CAT_ID":"47281","ELEMENT_SET_NO":"999","REV_AT_EPOCH":"70","BSTAR":"-0.00052878000000","MEAN_MOTION_DOT":"-0.00022552","MEAN_MOTION_DDOT":"0.0000000000000","SEMIMAJOR_AXIS":"6817.732","PERIOD":"93.372","APOAPSIS":"445.767","PERIAPSIS":"433.427","OBJECT_TYPE":"PAYLOAD","RCS_SIZE":null,"COUNTRY_CODE":"UK","LAUNCH_DATE":"2020-12-18","SITE":"VOSTO","DECAY_DATE":null,"FILE":"2908076","GP_ID":"168252382","TLE_LINE0":"0 ONEWEB-0135","TLE_LINE1":"1 47281U 20100Z   20358.16667824 -.00022552  00000-0 -52878-3 0  9994","TLE_LINE2":"2 47281  87.3980  38.0323 0009050 239.2770  29.8975 15.42207563   704"},{"CCSDS_OMM_VERS":"2.0","COMMENT":"GENERATED VIA SPACE-TRACK.ORG API","CREATION_DATE":"2020-12-23T19:41:42","ORIGINATOR":"18 SPCS","OBJECT_NAME":"ONEWEB-0135","OBJECT_ID":"2020-100Z","CENTER_NAME":"EARTH","REF_FRAME":"TEME","TIME_SYSTEM":"UTC","MEAN_ELEMENT_THEORY":"SGP4","EPOCH":"2020-12-23T12:00:02.999808","MEAN_MOTION":"15.42157956","ECCENTRICITY":"0.00089770","INCLINATION":"87.3979","RA_OF_ASC_NODE":"37.9119","ARG_OF_PERICENTER":"238.1659","MEAN_ANOMALY":"80.4810","EPHEMERIS_TYPE":"0","CLASSIFICATION_TYPE":"U","NORAD_CAT_ID":"47281","ELEMENT_SET_NO":"999","REV_AT_EPOCH":"179","BSTAR":"0.00139540000000","MEAN_MOTION_DOT":"0.00060216","MEAN_MOTION_DDOT":"0.0000000000000","SEMIMAJOR_AXIS":"6817.878","PERIOD":"93.375","APOAPSIS":"445.864","PERIAPSIS":"433.623","OBJECT_TYPE":"PAYLOAD","RCS_SIZE":null,"COUNTRY_CODE":"UK","LAUNCH_DATE":"2020-12-18","SITE":"VOSTO","DECAY_DATE":null,"FILE":"2908439","GP_ID":"168281668","TLE_LINE0":"0 ONEWEB-0135","TLE_LINE1":"1 47281U 20100Z   20358.50003472  .00060216  00000-0  13954-2 0  9993","TLE_LINE2":"2 47281  87.3979  37.9119 0008977 238.1659  80.4810 15.42157956  1795"}]